STARLINK-32371          
1 60916U 24154P   26068.87732214 -.00004119  00000+0 -12700-3 0  9993
2 60916  53.1602 282.9720 0001275  70.4855 289.6283 15.30200468 86365
TANSTAAFL-2             
1 62378U 24247B   26067.20753490  .00013897  00000+0  50872-3 0  9998
2 62378  44.9880 125.0934 0003072 298.8909  61.1666 15.28016845 67506
